STARLINK-34698          
1 66445C 25259Z   26183.36645833  .00052775  00000+0  19134-2 0  1836
2 66445  43.0020 347.0466 0001291 257.2425 176.8577 15.27519574    14
STARLINK-34986          
1 66446C 25259AA  26183.36715278  .00047387  00000+0  17181-2 0  1831
2 66446  43.0011 346.9596 0001435 255.3567 217.9199 15.27520983    16
STARLINK-34851          
1 66447C 25259AB  26183.41090278  .00053304  00000+0  19320-2 0  1837
2 66447  43.0028 346.8789 0001554 254.7877  28.6335 15.27530038    18
STARLINK-35355          
1 66448C 25259AC  26183.41298611  .00054875  00000+0  19889-2 0  1833
2 66448  43.0023 346.7985 0001625 259.9878  63.2007 15.27528327    17
STARLINK-34720          
1 66449C 25259AD  26183.39215278  .00050314  00000+0  18236-2 0  1838
2 66449  43.0016 346.8488 0001468 264.6697 332.1129 15.27530475    16
STARLINK-35334          
1 66450C 25259AE  26183.37756944  .00047099  00000+0  17075-2 0  1834
2 66450  43.0010 346.8814 0001397 252.0971 285.6285 15.27524064    14
STARLINK-35643          
1 66456C 25262A   26183.32131944  .00021427  00000+0  77663-3 0  1833
2 66456  43.0032   9.1182 0001850 261.0783 115.9489 15.27544539    16
STARLINK-35466          
1 66457C 25262B   26183.40048611  .00043378  00000+0  15728-2 0  1833
2 66457  43.0037   8.5518 0002009 269.4054 233.0257 15.27521101    13
STARLINK-35684          
1 66458C 25262C   26183.31159722  .00017727  00000+0  64265-3 0  1830
2 66458  43.0040   9.0886 0001542 265.0463  93.8199 15.27539524    14
STARLINK-35449          
1 66459C 25262D   26183.40743056  .00046771  00000+0  16951-2 0  1839
2 66459  43.0034   8.4272 0001513 260.1788 315.8516 15.27534878    11
STARLINK-35424          
1 66460C 25262E   26183.37340278  .00041294  00000+0  14971-2 0  1831
2 66460  43.0021   8.3632 0001656 276.9869 217.8262 15.27525825    12
STARLINK-35132          
1 66461C 25262F   26183.45395833  .00048994  00000+0  17757-2 0  1837
2 66461  43.0015   7.8740 0001235 261.5868 330.8752 15.27533039    18
STARLINK-35499          
1 66462C 25262G   26183.48798611  .00042705  00000+0  15475-2 0  1831
2 66462  43.0006   7.5649 0001434 250.1774 219.1534 15.27541033    15
STARLINK-35463          
1 66463C 25262H   26183.43590278  .00054805  00000+0  19869-2 0  1831
2 66463  43.0033   8.2296 0001635 250.6328 136.3201 15.27519532    15
STARLINK-35435          
1 66464C 25262J   26183.35326389  .00100010  00000+0  36323-2 0  1837
2 66464  43.0012   8.1995 0001506 266.7504 230.4003 15.27437982    13
STARLINK-35448          
1 66465C 25262K   26183.39145833  .00047996  00000+0  17404-2 0  1837
2 66465  43.0037   8.6153 0001438 259.2987 186.3618 15.27516650    19
STARLINK-35388          
1 66466C 25262L   26183.48104167  .00048504  00000+0  17583-2 0  1837
2 66466  43.0011   7.6681 0001241 256.0507 146.7589 15.27527395    17
STARLINK-35682          
1 66467C 25262M   26183.44562500  .00053983  00000+0  19571-2 0  1839
2 66467  43.0006   8.5300 0001002 264.4967  27.4107 15.27520906    10
STARLINK-35331          
1 66468C 25262N   26183.48243056  .00044474  00000+0  16127-2 0  1835
2 66468  43.0025   8.2185 0001530 262.9150 274.0320 15.27517858    12
STARLINK-35451          
1 66469C 25262P   26183.46506944  .00054576  00000+0  19780-2 0  1834
2 66469  43.0005   7.6379 0001412 256.2722 108.1280 15.27530584    12
STARLINK-35655          
1 66470C 25262Q   26183.48173611  .00050559  00000+0  18322-2 0  1837
2 66470  43.0035   7.9851 0001469 254.2072  17.9970 15.27535948    15
STARLINK-35569          
1 66471C 25262R   26183.30881944  .00341390  00000+0  12346-1 0  1839
2 66471  43.0027   8.7559 0001488 265.9049 219.0571 15.27461194    18
STARLINK-35567          
1 66472C 25262S   26183.45812500  .00054162  00000+0  19627-2 0  1836
2 66472  43.0006   7.7448 0001497 252.9492  44.9155 15.27534838    19
STARLINK-35568          
1 66473C 25262T   26183.32965278  .00025961  00000+0  94102-3 0  1831
2 66473  43.0014   9.1287 0001650 272.6158 122.0070 15.27539995    18
STARLINK-35620          
1 66474C 25262U   26183.48590278  .00048043  00000+0  17412-2 0  1837
2 66474  43.0018   7.7042 0001369 260.8199 140.4444 15.27535358    15
STARLINK-35538          
1 66475C 25262V   26183.47479167  .00045989  00000+0  16663-2 0  1833
2 66475  43.0036   8.2083 0001463 265.1386 250.8921 15.27544848    18
STARLINK-35372          
1 66476C 25262W   26183.45256944  .00048448  00000+0  17562-2 0  1830
2 66476  43.0034   8.1116 0001116 274.9332 210.8579 15.27529059    19
STARLINK-35354          
1 66477C 25262X   26183.39562500  .00048018  00000+0  17411-2 0  1838
2 66477  43.0018   8.1771 0001361 257.9738  20.4237 15.27519509    17
STARLINK-35283          
1 66478C 25262Y   26183.45534722  .00053900  00000+0  19540-2 0  1832
2 66478  43.0037   8.2819 0001403 259.1058 164.1496 15.27523241    10
STARLINK-35581          
1 66479C 25262Z   26183.39284722  .00050666  00000+0  18370-2 0  1834
2 66479  43.0006   7.9903 0001431 254.1652  93.8409 15.27519559    12
STARLINK-35670          
1 66480C 25262AA  26183.36159722  .00040804  00000+0  14794-2 0  1833
2 66480  43.0036   8.6915 0001355 261.9922  54.6406 15.27525121    13
STARLINK-35698          
1 66481C 25262AB  26183.37062500  .00038622  00000+0  14000-2 0  1837
2 66481  43.0007   8.1480 0001504 256.8160 314.6879 15.27533107    13
STARLINK-35648          
1 66482C 25262AC  26183.37687500  .00040368  00000+0  14632-2 0  1832
2 66482  43.0021   8.3487 0001576 255.5167 251.3541 15.27533012    19
STARLINK-35654          
1 66483C 25262AD  26183.45256944  .00050447  00000+0  18291-2 0  1830
2 66483  43.0009   7.7871 0001287 261.2820 358.9306 15.27519970    15
STARLINK-35371          
1 66484C 25262AE  26183.32965278  .00025266  00000+0  91591-3 0  1830
2 66484  43.0006   9.1568 0001494 259.2489 121.2328 15.27537905    13
STARLINK-34774          
1 66485C 25263A   26183.49076389  .00030036  00000+0  10891-2 0  1830
2 66485  43.0033  62.0854 0001122 271.0897 300.4258 15.27527002    13
STARLINK-34844          
1 66486C 25263B   26183.44493056  .00010659  00000+0  38657-3 0  1830
2 66486  43.0035  62.3227 0001354 249.6124  76.6387 15.27530776    11
STARLINK-34733          
1 66487C 25263C   26183.47756944  .00023786  00000+0  86256-3 0  1835
2 66487  43.0035  62.1058 0001319 255.5584 264.5237 15.27527296    14
STARLINK-35515          
1 66488C 25263D   26183.48659722  .00029418  00000+0  10666-2 0  1832
2 66488  43.0037  62.2037 0001295 264.5162 241.6058 15.27530386    11
STARLINK-35696          
1 66489C 25263E   26183.32062500 -.00010834  00000+0 -39290-3 0  1837
2 66489  43.0009  63.3115 0001225 268.1973 333.4087 15.27544230    18
STARLINK-35693          
1 66490C 25263F   26183.35534722 -.00014472  00000+0 -52403-3 0  1835
2 66490  43.0036  62.8817 0001107 276.6662 255.1430 15.27595690    19
STARLINK-35663          
1 66491C 25263G   26183.36506944 -.00010478  00000+0 -38000-3 0  1831
2 66491  43.0004  63.1746 0001162 263.0641 173.7139 15.27543551    18
STARLINK-35673          
1 66492C 25263H   26183.47201389  .00024718  00000+0  89628-3 0  1831
2 66492  43.0014  62.4259 0001373 263.8089 105.4237 15.27530308    16
STARLINK-35597          
1 66493C 25263J   26183.40048611 -.00009479  00000+0 -34372-3 0  1837
2 66493  43.0007  63.1515 0001280 255.7744 305.2272 15.27546523    12
STARLINK-35689          
1 66494C 25263K   26183.40743056 -.00007034  00000+0 -25507-3 0  1838
2 66494  43.0019  63.2171 0001785 266.8658 289.9279 15.27543418    17
STARLINK-35832          
1 66495C 25263L   26183.31854167 -.00011096  00000+0 -40246-3 0  1835
2 66495  43.0028  63.2395 0001317 261.1803   4.3308 15.27537614    10
STARLINK-35909          
1 66496C 25263M   26183.32895833 -.00011299  00000+0 -40978-3 0  1839
2 66496  43.0006  63.4827 0001133 265.6354 289.8807 15.27543045    14
STARLINK-35899          
1 66497C 25263N   26183.40743056 -.00001802  00000+0 -65341-4 0  1839
2 66497  43.0038  62.5957 0001371 263.1737 188.3039 15.27543371    18
STARLINK-35907          
1 66498C 25263P   26183.31090278 -.00001042  00000+0 -37776-4 0  1838
2 66498  42.9997  63.5745 0001249 258.8225 204.3636 15.27533853    10
STARLINK-35816          
1 66499C 25263Q   26183.45048611  .00015540  00000+0  56362-3 0  1835
2 66499  43.0011  62.9213 0001454 278.6559 176.4283 15.27526130    18
STARLINK-35894          
1 66500C 25263R   26183.31576389 -.00005051  00000+0 -18319-3 0  1839
2 66500  43.0037  66.7822 0001291 271.2516 313.3293 15.27538438    15
STARLINK-35897          
1 66501C 25263S   26183.39770833 -.00011576  00000+0 -41937-3 0  1839
2 66501  43.0004  62.9266 0001524 268.0809  16.5904 15.27576025    13
STARLINK-35922          
1 66502C 25263T   26183.41159722 -.00007854  00000+0 -28481-3 0  1834
2 66502  43.0008  63.0993 0001734 258.0046 357.1074 15.27543686    11
STARLINK-35917          
1 66503C 25263U   26183.40465278 -.00010706  00000+0 -38821-3 0  1839
2 66503  43.0005  62.9836 0001423 280.7945 359.7708 15.27546738    11
STARLINK-35916          
1 66504C 25263V   26183.38034722 -.00008931  00000+0 -32386-3 0  1830
2 66504  42.9999  66.6607 0001218 257.3041 230.8516 15.27542826    18
STARLINK-34766          
1 66505C 25263W   26183.36368056 -.00017031  00000+0 -61762-3 0  1830
2 66505  43.0032  62.6915 0001735 257.7646  16.5292 15.27546940    17
STARLINK-34765          
1 66506C 25263X   26183.43381944  .00006057  00000+0  21965-3 0  1835
2 66506  43.0007  62.6855 0001463 265.0711 232.6641 15.27534375    14
STARLINK-34767          
1 66507C 25263Y   26183.44493056  .00013511  00000+0  48996-3 0  1831
2 66507  43.0003  62.8661 0001276 248.2877 211.5701 15.27531538    17
STARLINK-35608          
1 66508C 25263Z   26183.40812500 -.00007285  00000+0 -26391-3 0  1835
2 66508  42.9999  62.9152 0001474 267.7840  53.0457 15.27574127    10
